CCSDS_OEM_VERS = 2.0
CREATION_DATE  = 2023-09-30T00:26:59.609
ORIGINATOR     = NASA/JSC/FOD/TOPO

META_START
OBJECT_NAME          = ISS
OBJECT_ID            = 1998-067-A
CENTER_NAME          = Earth
REF_FRAME            = EME2000
TIME_SYSTEM          = UTC
START_TIME           = 2023-09-29T18:41:33.926
USEABLE_START_TIME   = 2023-09-29T18:41:33.926
USEABLE_STOP_TIME    = 2023-10-14T18:41:33.926
STOP_TIME            = 2023-10-14T18:41:33.926
META_STOP

COMMENT Source: This file was produced by the TOPO office within FOD at JSC.
COMMENT Units are in kg and m^2
COMMENT MASS=458665.90
COMMENT DRAG_AREA=2040.50
COMMENT DRAG_COEFF=2.35
COMMENT SOLAR_RAD_AREA=0.00
COMMENT SOLAR_RAD_COEFF=0.00
COMMENT Orbits start at the ascending node epoch
COMMENT ISS first asc. node: EPOCH = 2023-09-29T19:59:08.251 $ ORBIT = 1801 $ LAN(DEG) = -137.90566
COMMENT ISS last asc. node : EPOCH = 2023-10-14T17:26:45.014 $ ORBIT = 2032 $ LAN(DEG) = 171.73373
COMMENT Begin sequence of events
COMMENT TRAJECTORY EVENT SUMMARY:
COMMENT 
COMMENT |       EVENT        |       TIG        | ORB |   DV    |   HA    |   HP    |
COMMENT |                    |       GMT        |     |   M/S   |   KM    |   KM    |
COMMENT |                    |                  |     |  (F/S)  |  (NM)   |  (NM)   |
COMMENT =============================================================================
COMMENT =============================================================================
COMMENT End sequence of events
2023-10-07T12:04:30.000 -3369.120830589990 5677.730921529090 -1619.442422607160 -4.91132227351261 -1.28931182192030 5.73378861998288
2023-10-07T12:08:30.000 -4410.943750991440 5165.510145680050 -201.032760460261 -3.71721094179322 -2.95349820643727 6.01393807227049
2023-10-07T12:12:30.000 -5131.553519760380 4277.159150879560 1232.033580606030 -2.25093774722084 -4.40435907969264 5.85500924797666
2023-10-07T12:16:30.000 -5478.167448362340 3077.094956878010 2575.039346837180 -0.61973946714796 -5.53505460374905 5.26799184086944
2023-10-07T12:20:30.000 -5425.385378418380 1652.681486128200 3729.773644344360 1.05688783239111 -6.26240081118995 4.29573639884313
2023-10-07T12:24:30.000 -4977.064259789390 107.765830904646 4611.821873893560 2.65618100684874 -6.53309065392143 3.00961673493493
2023-10-07T12:28:30.000 -4165.986231402540 -1445.011705622030 5156.785045308920 4.06137413617108 -6.32757288746099 1.50396349718241
2023-10-07T12:32:30.000 -3051.364592185720 -2892.504204460850 5324.942549509940 5.17029615068466 -5.66111118112947 -0.11120345101573
2023-10-07T12:36:30.000 -1714.457221591510 -4129.275082467540 5104.067361253160 5.90246930868593 -4.58227603241540 -1.71814240402166
2023-10-07T12:40:30.000 -252.660722886258 -5065.213236519790 4510.287352590060 6.20467416701064 -3.16946470824345 -3.19971836645068
2023-10-07T12:44:30.000 1227.532810842730 -5632.073424946250 3586.930430255770 6.05481519838284 -1.52541703017959 -4.44775336216405
2023-10-07T12:48:30.000 2618.263779168750 -5788.486144515020 2401.430169355230 5.46371848008005 0.22993045143577 -5.37079321660949
2023-10-07T12:52:30.000 3818.208027600540 -5523.084855799900 1040.437514383970 4.47474086469252 1.96809065330998 -5.90121354345933
2023-10-07T12:56:30.000 4740.066578797560 -4855.387476044540 -396.569015488450 3.16066547627430 3.56179826160075 -6.00041807846277
2023-10-07T13:00:30.000 5317.021062134050 -3834.349422081750 -1804.654660475280 1.61831180593736 4.89458256903285 -5.66187143006412
2023-10-07T13:04:30.000 5507.631016032040 -2534.658586892730 -3081.250947042630 -0.03910605169640 5.86988215490926 -4.91162027453592
2023-10-07T13:08:30.000 5298.708066129060 -1051.061192692260 -4133.706953444070 -1.69085919076414 6.41805567265113 -3.80564613292005
2023-10-07T13:12:30.000 4706.035026793540 508.692244760601 -4885.948671764230 -3.21773585589065 6.50090418475799 -2.42515411051060
2023-10-07T13:16:30.000 3772.980276805750 2031.676559687690 -5283.798980960530 -4.51037168485183 6.11365927808938 -0.87027648034255
2023-10-07T13:20:30.000 2567.235131045610 3407.829935668430 -5298.669835076520 -5.47655872279659 5.28471462202275 0.74711154261711
2023-10-07T13:24:30.000 1175.949444086910 4537.671068058150 -4929.474724926970 -6.04720274194344 4.07332200027501 2.31099713802819
2023-10-07T13:28:30.000 -300.374631852144 5339.271268122500 -4202.702028886500 -6.18078253198931 2.56573561130181 3.70887020352521
2023-10-07T13:32:30.000 -1754.910557584420 5754.111720996610 -3170.658868546930 -5.86649516295201 0.86973074702628 4.83933649459223
2023-10-07T13:36:30.000 -3082.079088068090 5751.430365829930 -1907.922140987810 -5.12559606405114 -0.89246410443486 5.61936389739486
2023-10-07T13:40:30.000 -4185.196456551480 5330.701078519460 -506.137073926035 -4.01063843187362 -2.59262743825986 5.99073444565999
2023-10-07T13:44:30.000 -4983.645034360890 4521.938542527760 932.576150901664 -2.60217256765557 -4.10611417668650 5.92501242413554
2023-10-07T13:48:30.000 -5418.942402681820 3383.681467405530 2303.127235394740 -1.00298967659896 -5.32140373492334 5.42612093706843
2023-10-07T13:52:30.000 -5459.191866194850 1998.758654548990 3505.292565299630 0.66962891250523 -6.14899732320432 4.53044307549676
2023-10-07T13:56:30.000 -5101.453336348660 468.114859965176 4451.190686849410 2.29321822879818 -6.52830427505572 3.30371734570954
2023-10-07T14:00:30.000 -4371.884899230320 -1096.665623089640 5071.740215468820 3.74925309743337 -6.43175822108409 1.83586893727359
2023-10-07T14:04:30.000 -3323.750036141610 -2581.546967101180 5321.679563146480 4.93173942151881 -5.86658352721501 0.23423739194408
2023-10-07T14:08:30.000 -2033.473483053730 -3878.355386381280 5182.814433637360 5.75480822111323 -4.87406399675393 -1.38435614881408
2023-10-07T14:12:30.000 -595.060822940224 -4892.609909313310 4665.284929667250 6.15865995656497 -3.52632071548405 -2.90198303836161
2023-10-07T14:16:30.000 886.697580476938 -5550.356699898160 3806.843951096360 6.11378417620438 -1.92131269740136 -4.20784362291145
2023-10-07T14:20:30.000 2303.821788904800 -5803.593049648490 2670.173633682460 5.62333094259835 -0.17607602755909 -5.20628822037088
2023-10-07T14:24:30.000 3553.040223618940 -5633.869797131470 1338.352035510390 4.72320344782420 1.58166808050034 -5.82409967622480
2023-10-07T14:28:30.000 4543.422650963790 -5053.718385504650 -91.253994825171 3.47971695133329 3.22313397417214 -6.01622512939019
2023-10-07T14:32:30.000 5203.116975659220 -4105.712104266780 -1514.224277251280 1.98449865019595 4.62836679104229 -5.76929746324648
2023-10-07T14:36:30.000 5484.604672277860 -2859.234457181990 -2826.844814424050 0.34738780652050 5.69531198150024 -5.10250740488606
2023-10-07T14:40:30.000 5368.071235910580 -1405.228679646310 -3933.765550412860 -1.31210459078043 6.34746150616466 -4.06582784811655
2023-10-07T14:44:30.000 4862.629180844180 150.613052957579 -4754.907795113430 -2.87393483520283 6.53905312178262 -2.73564875448263
2023-10-07T14:48:30.000 4005.398233514450 1695.583642089060 -5231.097499265970 -4.22609130713334 6.25760184117585 -1.20867338722697
2023-10-07T14:52:30.000 2858.656737255230 3118.011054715210 -5328.112771751470 -5.27208737069511 5.52407693060332 0.40509050574008
2023-10-07T14:56:30.000 1505.337232012340 4315.107608736180 -5038.977386926140 -5.93721826625212 4.39108121170862 1.98987449507520
2023-10-07T15:00:30.000 43.186860592634 5200.161974726900 -4384.427013186470 -6.17341685530312 2.93925889125279 3.43180014708443
2023-10-07T15:04:30.000 -1422.058200560470 5708.692922187070 -3411.536307760070 -5.96262757312095 1.27224582958566 4.62650603611812
2023-10-07T15:08:30.000 -2784.134289237930 5803.194650345660 -2190.542300081210 -5.31864906400623 -0.49006295167693 5.48652565080152
2023-10-07T15:12:30.000 -3943.905442279560 5476.075719326470 -809.970759636976 -4.28684271604076 -2.21974745417543 5.94793015356592
2023-10-07T15:16:30.000 -4816.672879817960 4750.487247812580 629.682545810196 -2.94151078309226 -3.79016372031963 5.97564546900690
2023-10-07T15:20:30.000 -5338.545243853720 3678.837178080880 2023.317119306640 -1.38065883223018 -5.08575468783018 5.56668092299583
2023-10-07T15:24:30.000 -5471.272151350750 2339.025165091530 3269.037122873520 0.28139811463222 -6.01102844863649 4.75059215755986
2023-10-07T15:28:30.000 -5205.127175259580 828.690626416441 4275.753808183970 1.92284890789518 -6.49805302675723 3.58726851554587
2023-10-07T15:32:30.000 -4559.578191196400 -742.053136887681 4969.926283901810 3.42374253127911 -6.51140272802701 2.16207876944992
2023-10-07T15:36:30.000 -3581.764029615020 -2258.737178627510 5300.909053583340 4.67483309015122 -6.05033224670742 0.57923454009679
2023-10-07T15:40:30.000 -2342.983381683600 -3610.861764755080 5244.575341219690 5.58519355734091 -5.14845289327983 -1.04580102303735
2023-10-07T15:44:30.000 -933.502045911215 -4699.903781855190 4805.042216750540 6.08865534496845 -3.87135179182744 -2.59455325300504
2023-10-07T15:48:30.000 543.994545337048 -5446.460670150700 4014.369648175750 6.14849095305651 -2.31183422066584 -3.95400542530781
2023-10-07T15:52:30.000 1981.833704932320 -5796.050080763650 2930.280647112040 5.76018109909007 -0.58355998380870 -5.02465155938464
2023-10-07T15:56:30.000 3275.213828054950 -5723.168621779600 1631.996763851950 4.95207644759786 1.18710542959117 -5.72796369176385
2023-10-07T16:00:30.000 4329.934055025140 -5233.250423790560 214.446905409029 3.78367008048586 2.87035603068599 -6.01247422271584
2023-10-07T16:04:30.000 5069.390863634650 -4362.287138947050 -1218.782561543850 2.34113085029210 4.34302245208585 -5.85797382753870
2023-10-07T16:08:30.000 5440.203177008840 -3174.080832217040 -2563.166152266480 0.73056099894848 5.49798289956870 -5.27684762041478
2023-10-07T16:12:30.000 5416.033328128090 -1755.399659956400 -3720.963825315710 -0.93025900276107 6.25214586045255 -4.31282764442008
